[{"OBJECT_NAME":"GALAXY 18 (G-18)","OBJECT_ID":"2008-024A","EPOCH":"2026-05-22T05:56:00.273696","MEAN_MOTION":1.00271753,"ECCENTRICITY":0.00028856,"INCLINATION":0.0213,"RA_OF_ASC_NODE":54.8676,"ARG_OF_PERICENTER":12.6533,"MEAN_ANOMALY":138.3555,"EPHEMERIS_TYPE":0,"CLASSIFICATION_TYPE":"U","NORAD_CAT_ID":32951,"ELEMENT_SET_NO":999,"REV_AT_EPOCH":4559,"BSTAR":0,"MEAN_MOTION_DOT":1.7e-07,"MEAN_MOTION_DDOT":0},{"OBJECT_NAME":"ZHONGXING-9","OBJECT_ID":"2008-028A","EPOCH":"2026-05-22T04:24:21.591936","MEAN_MOTION":1.00268808,"ECCENTRICITY":0.00050612,"INCLINATION":0.704,"RA_OF_ASC_NODE":85.6056,"ARG_OF_PERICENTER":309.3524,"MEAN_ANOMALY":3.3167,"EPHEMERIS_TYPE":0,"CLASSIFICATION_TYPE":"U","NORAD_CAT_ID":33051,"ELEMENT_SET_NO":999,"REV_AT_EPOCH":6577,"BSTAR":0,"MEAN_MOTION_DOT":-2.56e-06,"MEAN_MOTION_DDOT":0},{"OBJECT_NAME":"SKYNET 5C","OBJECT_ID":"2008-030A","EPOCH":"2026-05-22T05:30:13.100256","MEAN_MOTION":1.00271574,"ECCENTRICITY":0.00037963,"INCLINATION":3.7249,"RA_OF_ASC_NODE":77.3358,"ARG_OF_PERICENTER":348.4946,"MEAN_ANOMALY":238.8176,"EPHEMERIS_TYPE":0,"CLASSIFICATION_TYPE":"U","NORAD_CAT_ID":33055,"ELEMENT_SET_NO":999,"REV_AT_EPOCH":6569,"BSTAR":0,"MEAN_MOTION_DOT":-1.47e-06,"MEAN_MOTION_DDOT":0},{"OBJECT_NAME":"TURKSAT 3A","OBJECT_ID":"2008-030B","EPOCH":"2026-05-22T04:04:35.337216","MEAN_MOTION":1.00271337,"ECCENTRICITY":0.00050174,"INCLINATION":0.0734,"RA_OF_ASC_NODE":85.2437,"ARG_OF_PERICENTER":328.0363,"MEAN_ANOMALY":289.6496,"EPHEMERIS_TYPE":0,"CLASSIFICATION_TYPE":"U","NORAD_CAT_ID":33056,"ELEMENT_SET_NO":999,"REV_AT_EPOCH":5209,"BSTAR":0,"MEAN_MOTION_DOT":1.38e-06,"MEAN_MOTION_DDOT":0},{"OBJECT_NAME":"INTELSAT 25 (IS-25)","OBJECT_ID":"2008-034A","EPOCH":"2026-05-22T04:58:48.686016","MEAN_MOTION":0.9903242,"ECCENTRICITY":0.00012042,"INCLINATION":2.6433,"RA_OF_ASC_NODE":80.606,"ARG_OF_PERICENTER":1.459,"MEAN_ANOMALY":110.1688,"EPHEMERIS_TYPE":0,"CLASSIFICATION_TYPE":"U","NORAD_CAT_ID":33153,"ELEMENT_SET_NO":999,"REV_AT_EPOCH":6543,"BSTAR":0,"MEAN_MOTION_DOT":6.5e-07,"MEAN_MOTION_DDOT":0},{"OBJECT_NAME":"ECHOSTAR 11","OBJECT_ID":"2008-035A","EPOCH":"2026-05-22T05:04:00.367104","MEAN_MOTION":1.00271689,"ECCENTRICITY":0.00024107,"INCLINATION":0.9399,"RA_OF_ASC_NODE":84.4291,"ARG_OF_PERICENTER":315.5451,"MEAN_ANOMALY":166.0672,"EPHEMERIS_TYPE":0,"CLASSIFICATION_TYPE":"U","NORAD_CAT_ID":33207,"ELEMENT_SET_NO":999,"REV_AT_EPOCH":5095,"BSTAR":0,"MEAN_MOTION_DOT":-6.6e-07,"MEAN_MOTION_DDOT":0},{"OBJECT_NAME":"SUPERBIRD-C2","OBJECT_ID":"2008-038A","EPOCH":"2026-05-22T06:14:08.887776","MEAN_MOTION":1.00271568,"ECCENTRICITY":0.0005374,"INCLINATION":2.2963,"RA_OF_ASC_NODE":81.5664,"ARG_OF_PERICENTER":14.5844,"MEAN_ANOMALY":13.277,"EPHEMERIS_TYPE":0,"CLASSIFICATION_TYPE":"U","NORAD_CAT_ID":33274,"ELEMENT_SET_NO":999,"REV_AT_EPOCH":10547,"BSTAR":0,"MEAN_MOTION_DOT":-3.14e-06,"MEAN_MOTION_DDOT":0},{"OBJECT_NAME":"INMARSAT 4-F3","OBJECT_ID":"2008-039A","EPOCH":"2026-05-22T05:07:22.543968","MEAN_MOTION":1.00271225,"ECCENTRICITY":0.00029867,"INCLINATION":4.2721,"RA_OF_ASC_NODE":31.5311,"ARG_OF_PERICENTER":34.2639,"MEAN_ANOMALY":152.8981,"EPHEMERIS_TYPE":0,"CLASSIFICATION_TYPE":"U","NORAD_CAT_ID":33278,"ELEMENT_SET_NO":999,"REV_AT_EPOCH":4628,"BSTAR":0,"MEAN_MOTION_DOT":-1.49e-06,"MEAN_MOTION_DDOT":0},{"OBJECT_NAME":"NIMIQ 4","OBJECT_ID":"2008-044A","EPOCH":"2026-05-22T05:13:21.417600","MEAN_MOTION":1.00272053,"ECCENTRICITY":0.0002087,"INCLINATION":0.009,"RA_OF_ASC_NODE":61.8628,"ARG_OF_PERICENTER":352.7399,"MEAN_ANOMALY":181.6107,"EPHEMERIS_TYPE":0,"CLASSIFICATION_TYPE":"U","NORAD_CAT_ID":33373,"ELEMENT_SET_NO":999,"REV_AT_EPOCH":6472,"BSTAR":0,"MEAN_MOTION_DOT":-2.29e-06,"MEAN_MOTION_DDOT":0},{"OBJECT_NAME":"GALAXY 19 (G-19)","OBJECT_ID":"2008-045A","EPOCH":"2026-05-22T05:07:37.519680","MEAN_MOTION":1.00273128,"ECCENTRICITY":0.00027313,"INCLINATION":0.0429,"RA_OF_ASC_NODE":100.1348,"ARG_OF_PERICENTER":325.544,"MEAN_ANOMALY":154.069,"EPHEMERIS_TYPE":0,"CLASSIFICATION_TYPE":"U","NORAD_CAT_ID":33376,"ELEMENT_SET_NO":999,"REV_AT_EPOCH":6464,"BSTAR":0,"MEAN_MOTION_DOT":-1.47e-06,"MEAN_MOTION_DDOT":0},{"OBJECT_NAME":"ASTRA 1M","OBJECT_ID":"2008-057A","EPOCH":"2026-05-22T05:40:49.583136","MEAN_MOTION":1.00274022,"ECCENTRICITY":0.00045625,"INCLINATION":0.2312,"RA_OF_ASC_NODE":81.7518,"ARG_OF_PERICENTER":12.0035,"MEAN_ANOMALY":250.7063,"EPHEMERIS_TYPE":0,"CLASSIFICATION_TYPE":"U","NORAD_CAT_ID":33436,"ELEMENT_SET_NO":999,"REV_AT_EPOCH":4547,"BSTAR":0,"MEAN_MOTION_DOT":1.13e-06,"MEAN_MOTION_DDOT":0},{"OBJECT_NAME":"EUTELSAT HOTBIRD 13C","OBJECT_ID":"2008-065A","EPOCH":"2026-05-22T03:38:22.848576","MEAN_MOTION":1.00270659,"ECCENTRICITY":0.00038975,"INCLINATION":2.8857,"RA_OF_ASC_NODE":79.4834,"ARG_OF_PERICENTER":341.3609,"MEAN_ANOMALY":183.2507,"EPHEMERIS_TYPE":0,"CLASSIFICATION_TYPE":"U","NORAD_CAT_ID":33459,"ELEMENT_SET_NO":999,"REV_AT_EPOCH":4708,"BSTAR":0,"MEAN_MOTION_DOT":-2.9e-06,"MEAN_MOTION_DDOT":0},{"OBJECT_NAME":"EXPRESS-AM44","OBJECT_ID":"2009-007A","EPOCH":"2026-05-22T02:06:50.001408","MEAN_MOTION":1.00270988,"ECCENTRICITY":0.00041178,"INCLINATION":3.3986,"RA_OF_ASC_NODE":78.6964,"ARG_OF_PERICENTER":339.8846,"MEAN_ANOMALY":201.8449,"EPHEMERIS_TYPE":0,"CLASSIFICATION_TYPE":"U","NORAD_CAT_ID":33595,"ELEMENT_SET_NO":999,"REV_AT_EPOCH":5202,"BSTAR":0,"MEAN_MOTION_DOT":-9.7e-07,"MEAN_MOTION_DDOT":0},{"OBJECT_NAME":"NSS-9","OBJECT_ID":"2009-008A","EPOCH":"2026-05-22T04:44:53.972160","MEAN_MOTION":1.00272428,"ECCENTRICITY":0.00022545,"INCLINATION":1.1966,"RA_OF_ASC_NODE":82.8701,"ARG_OF_PERICENTER":326.65,"MEAN_ANOMALY":84.6038,"EPHEMERIS_TYPE":0,"CLASSIFICATION_TYPE":"U","NORAD_CAT_ID":33749,"ELEMENT_SET_NO":999,"REV_AT_EPOCH":6326,"BSTAR":0,"MEAN_MOTION_DOT":6.4e-07,"MEAN_MOTION_DDOT":0},{"OBJECT_NAME":"TELSTAR 11N","OBJECT_ID":"2009-009A","EPOCH":"2026-05-22T05:24:36.137664","MEAN_MOTION":1.00270924,"ECCENTRICITY":0.00023925,"INCLINATION":0.0156,"RA_OF_ASC_NODE":323.3708,"ARG_OF_PERICENTER":78.7326,"MEAN_ANOMALY":241.3637,"EPHEMERIS_TYPE":0,"CLASSIFICATION_TYPE":"U","NORAD_CAT_ID":34111,"ELEMENT_SET_NO":999,"REV_AT_EPOCH":4598,"BSTAR":0,"MEAN_MOTION_DOT":-2.59e-06,"MEAN_MOTION_DDOT":0},{"OBJECT_NAME":"WGS F2 (USA 204)","OBJECT_ID":"2009-017A","EPOCH":"2026-05-22T04:09:04.906080","MEAN_MOTION":1.00270657,"ECCENTRICITY":0.0001325,"INCLINATION":0.0171,"RA_OF_ASC_NODE":329.8817,"ARG_OF_PERICENTER":262.9488,"MEAN_ANOMALY":126.7694,"EPHEMERIS_TYPE":0,"CLASSIFICATION_TYPE":"U","NORAD_CAT_ID":34713,"ELEMENT_SET_NO":999,"REV_AT_EPOCH":4535,"BSTAR":0,"MEAN_MOTION_DOT":6e-07,"MEAN_MOTION_DDOT":0},{"OBJECT_NAME":"SES-7 (PROTOSTAR 2)","OBJECT_ID":"2009-027A","EPOCH":"2026-05-22T06:06:09.653760","MEAN_MOTION":1.00279935,"ECCENTRICITY":2.546e-05,"INCLINATION":0.0696,"RA_OF_ASC_NODE":82.8215,"ARG_OF_PERICENTER":246.3332,"MEAN_ANOMALY":110.5355,"EPHEMERIS_TYPE":0,"CLASSIFICATION_TYPE":"U","NORAD_CAT_ID":34941,"ELEMENT_SET_NO":999,"REV_AT_EPOCH":6236,"BSTAR":0,"MEAN_MOTION_DOT":-3.54e-06,"MEAN_MOTION_DDOT":0}]