GALAXY 18 (G-18)        
1 32951U 08024A   26142.24722539  .00000017  00000+0  00000+0 0  9999
2 32951   0.0213  54.8676 0002885  12.6533 138.3555  1.00271753 45596
ZHONGXING-9             
1 33051U 08028A   26142.18358324 -.00000256  00000+0  00000+0 0  9991
2 33051   0.7040  85.6056 0005061 309.3524   3.3167  1.00268808 65771
SKYNET 5C               
1 33055U 08030A   26142.22931829 -.00000147  00000+0  00000+0 0  9999
2 33055   3.7249  77.3358 0003796 348.4946 238.8176  1.00271574 65697
TURKSAT 3A              
1 33056U 08030B   26142.16985344  .00000138  00000+0  00000+0 0  9993
2 33056   0.0734  85.2437 0005017 328.0363 289.6496  1.00271337 52094
INTELSAT 25 (IS-25)     
1 33153U 08034A   26142.20750794  .00000065  00000+0  00000+0 0  9998
2 33153   2.6433  80.6060 0001204   1.4590 110.1688  0.99032420 65433
ECHOSTAR 11             
1 33207U 08035A   26142.21111536 -.00000066  00000+0  00000+0 0  9997
2 33207   0.9399  84.4291 0002410 315.5451 166.0672  1.00271689 50957
SUPERBIRD-C2            
1 33274U 08038A   26142.25982509 -.00000314  00000+0  00000+0 0  9990
2 33274   2.2963  81.5664 0005374  14.5844  13.2770  1.00271568105475
INMARSAT 4-F3           
1 33278U 08039A   26142.21345537 -.00000149  00000+0  00000+0 0  9991
2 33278   4.2721  31.5311 0002986  34.2639 152.8981  1.00271225 46281
NIMIQ 4                 
1 33373U 08044A   26142.21760900 -.00000229  00000+0  00000+0 0  9997
2 33373   0.0090  61.8628 0002087 352.7399 181.6107  1.00272053 64729
GALAXY 19 (G-19)        
1 33376U 08045A   26142.21362870 -.00000147  00000+0  00000+0 0  9994
2 33376   0.0429 100.1348 0002731 325.5440 154.0690  1.00273128 64641
ASTRA 1M                
1 33436U 08057A   26142.23668499  .00000113  00000+0  00000+0 0  9994
2 33436   0.2312  81.7518 0004562  12.0035 250.7063  1.00274022 45478
EUTELSAT HOTBIRD 13C    
1 33459U 08065A   26142.15165334 -.00000290  00000+0  00000+0 0  9996
2 33459   2.8857  79.4834 0003897 341.3609 183.2507  1.00270659 47089
EXPRESS-AM44            
1 33595U 09007A   26142.08807872 -.00000097  00000+0  00000+0 0  9991
2 33595   3.3986  78.6964 0004117 339.8846 201.8449  1.00270988 52022
NSS-9                   
1 33749U 09008A   26142.19784690  .00000064  00000+0  00000+0 0  9990
2 33749   1.1966  82.8701 0002254 326.6500  84.6038  1.00272428 63264
TELSTAR 11N             
1 34111U 09009A   26142.22541826 -.00000259  00000+0  00000+0 0  9998
2 34111   0.0156 323.3708 0002392  78.7326 241.3637  1.00270924 45986
WGS F2 (USA 204)        
1 34713U 09017A   26142.17297345  .00000060  00000+0  00000+0 0  9992
2 34713   0.0171 329.8817 0001325 262.9488 126.7694  1.00270657 45357
SES-7 (PROTOSTAR 2)     
1 34941U 09027A   26142.25427840 -.00000354  00000+0  00000+0 0  9997
2 34941   0.0696  82.8215 0000254 246.3332 110.5355  1.00279935 62367
